ONEWEB-0709             
1 55172U 23004AJ  26174.84215680 -.00000141  00000+0 -43420-3 0  9996
2 55172  87.8881  19.7542 0002066 112.4445 247.6902 13.11419423166748
ONEWEB-0710             
1 55173U 23004AK  26174.96209347  .00000097  00000+0  21696-3 0  9992
2 55173  87.9133   4.5177 0001968  86.4080 273.7277 13.17650151168479
ONEWEB-0711             
1 55174U 23004AL  26174.81333414 -.00000166  00000+0 -50307-3 0  9990
2 55174  87.8884  19.7474 0002440  77.0338 283.1062 13.11414239166708
ONEWEB-0713             
1 55175U 23004AM  26174.83198423 -.00000485  00000+0 -14047-2 0  9996
2 55175  87.8886  19.7455 0002164  81.0604 279.0769 13.11417612166698
ONEWEB-0715             
1 55176U 23004AN  26174.82688705 -.00000424  00000+0 -12318-2 0  9995
2 55176  87.8886  19.7471 0002261 102.7995 257.3386 13.11416282166730
ONEWEB-0716             
1 55177U 23004AP  26174.95534340 -.00000018  00000+0 -78654-4 0  9991
2 55177  87.9130   4.5216 0001601  89.9158 270.2157 13.17649873168470
ONEWEB-0717             
1 55178U 23004AQ  26174.93847553  .00000497  00000+0  12476-2 0  9990
2 55178  87.9144   4.5132 0002394  86.4414 273.6992 13.17652057168528
ONEWEB-0719             
1 55179U 23004AR  26174.94860508  .00000062  00000+0  12646-3 0  9995
2 55179  87.9140   4.4916 0001704  85.4050 274.7276 13.17649803168479
ONEWEB-0530             
1 55796U 23029A   26174.52926321  .00000111  00000+0  24124-3 0  9996
2 55796  87.9185 273.2046 0002229  89.2710 270.8679 13.20771747161981
ONEWEB-0534             
1 55797U 23029B   26174.74474032  .00000053  00000+0  98353-4 0  9999
2 55797  87.9188 273.1625 0001906 101.5677 258.5670 13.20772489162011
ONEWEB-0556             
1 55798U 23029C   26174.29692112  .00000046  00000+0  82382-4 0  9998
2 55798  87.9183 273.2507 0001407  80.2838 279.8454 13.20774039161956
ONEWEB-0562             
1 55799U 23029D   26174.51073789  .00000009  00000+0 -98244-5 0  9992
2 55799  87.9186 273.1892 0002078  76.3623 283.7741 13.20771303161986
ONEWEB-0563             
1 55800U 23029E   26174.73295814 -.00000019  00000+0 -78826-4 0  9999
2 55800  87.9185 273.1753 0001817 104.9971 255.1364 13.20772787162003
ONEWEB-0564             
1 55801U 23029F   26174.57471871 -.00000056  00000+0 -17021-3 0  9991
2 55801  87.9188 273.1804 0002085  89.3731 270.7642 13.20771537161993
ONEWEB-0638             
1 55802U 23029G   26174.71085139 -.00000023  00000+0 -96463-4 0  9998
2 55802  87.8962 288.4509 0001647  85.7289 274.4028 13.14503984160254
ONEWEB-0639             
1 55803U 23029H   26174.77960149  .00000255  00000+0  60510-3 0  9996
2 55803  87.9172 303.6619 0001409 133.6193 226.5057 13.19729965159773
ONEWEB-0640             
1 55804U 23029J   26174.56812150 -.00000155  00000+0 -45139-3 0  9993
2 55804  87.8960 288.4704 0001278  92.3085 267.8191 13.14503003160258
ONEWEB-0641             
1 55805U 23029K   26174.77486909  .00000093  00000+0  19893-3 0  9993
2 55805  87.9184 303.6530 0001859 105.3077 254.8261 13.19725562159787
ONEWEB-0642             
1 55806U 23029L   26174.92177315  .00000044  00000+0  77030-4 0  9993
2 55806  87.9174 303.6352 0001897 125.8007 234.3302 13.19725115159795
ONEWEB-0643             
1 55807U 23029M   26174.76635308  .00000251  00000+0  64333-3 0  9998
2 55807  87.8959 288.4181 0002128 119.9419 240.1922 13.14504160160251
ONEWEB-0644             
1 55808U 23029N   26174.91703020  .00000079  00000+0  16524-3 0  9990
2 55808  87.9171 303.6371 0001873 111.2030 248.9303 13.19725162159798
ONEWEB-0645             
1 55809U 23029P   26174.78750785  .00000020  00000+0  17162-4 0  9992
2 55809  87.9175 303.6601 0001471 107.6824 252.4469 13.19725059159779
ONEWEB-0646             
1 55810U 23029Q   26174.80488797 -.00000001  00000+0 -34791-4 0  9996
2 55810  87.9178 303.6569 0001891 108.9062 251.2276 13.19726082159760
ONEWEB-0648             
1 55811U 23029R   26174.73462753 -.00000207  00000+0 -59270-3 0  9999
2 55811  87.8970 288.3987 0001420 127.6588 232.4671 13.14501899160250
ONEWEB-0649             
1 55812U 23029S   26174.90596870  .00000018  00000+0  13264-4 0  9999
2 55812  87.9173 303.6343 0001678 105.8018 254.3300 13.19725478159813
ONEWEB-0650             
1 55813U 23029T   26174.59797523  .00000093  00000+0  20005-3 0  9996
2 55813  87.9175 303.6984 0001828 119.5316 240.6000 13.19729479159749
ONEWEB-0652             
1 55814U 23029U   26174.56335507 -.00000104  00000+0 -31607-3 0  9999
2 55814  87.8968 288.4398 0002087  97.3936 262.7431 13.14501114160202
ONEWEB-0653             
1 55815U 23029V   26174.54750032  .00000169  00000+0  42234-3 0  9999
2 55815  87.8971 288.4410 0001900  98.5542 261.5803 13.14503336160232
ONEWEB-0654             
1 55816U 23029W   26174.77109302  .00000256  00000+0  65508-3 0  9999
2 55816  87.8967 288.3925 0002064  91.1920 268.9447 13.14504649160287
ONEWEB-0656             
1 55817U 23029X   26174.71948063 -.00000003  00000+0 -38139-4 0  9992
2 55817  87.9198 273.1282 0002224  89.8609 270.2779 13.20773897162016
ONEWEB-0657             
1 55818U 23029Y   26174.36578431  .00000066  00000+0  13126-3 0  9997
2 55818  87.9174 303.7432 0002591  98.8294 261.3133 13.19725475159721
ONEWEB-0658             
1 55819U 23029Z   26174.58849539  .00000032  00000+0  47539-4 0  9991
2 55819  87.9184 303.6749 0001877 112.8943 247.2388 13.19724901159769
ONEWEB-0660             
1 55820U 23029AA  26174.59666075  .00000078  00000+0  17555-3 0  9990
2 55820  87.8975 288.4210 0001614 102.8272 257.3038 13.14504029160245
ONEWEB-0661             
1 55821U 23029AB  26174.70767799  .00000042  00000+0  80001-4 0  9997
2 55821  87.8959 288.4426 0001619  97.7404 262.3909 13.14503390160244
ONEWEB-0662             
1 55822U 23029AC  26174.74256223 -.00000022  00000+0 -94212-4 0  9996
2 55822  87.8953 288.4415 0001609 103.4988 256.6321 13.14503611160293
ONEWEB-0663             
1 55823U 23029AD  26174.52545192  .00000075  00000+0  15271-3 0  9992
2 55823  87.9199 273.2384 0001675 110.2016 249.9298 13.20870218161987
ONEWEB-0664             
1 55824U 23029AE  26174.70602773 -.00000003  00000+0 -39475-4 0  9998
2 55824  87.9185 273.1828 0001705  89.6413 270.4916 13.20770799162002
ONEWEB-0665             
1 55825U 23029AF  26174.78062289  .00000103  00000+0  24428-3 0  9999
2 55825  87.8961 288.4090 0001638 106.0396 254.0914 13.14503773160275
ONEWEB-0666             
1 55826U 23029AG  26174.69928984  .00000041  00000+0  68634-4 0  9992
2 55826  87.9185 273.1739 0002729  99.7872 260.3570 13.20771917162011
ONEWEB-0667             
1 55827U 23029AH  26174.69424241  .00000092  00000+0  19400-3 0  9992
2 55827  87.9201 273.1340 0001818 100.0006 260.1332 13.20772438162004
ONEWEB-0669             
1 55828U 23029AJ  26174.68918640  .00000139  00000+0  30980-3 0  9991
2 55828  87.9188 273.1453 0002071  84.3121 275.8249 13.20773038162005
ONEWEB-0670             
1 55829U 23029AK  26174.75840850 -.00001109  00000+0 -30261-2 0  9998
2 55829  87.8957 288.4306 0001658  93.4314 266.7005 13.14507835160291
ONEWEB-0671             
1 55830U 23029AL  26174.81119696 -.00000015  00000+0 -69940-4 0  9997
2 55830  87.9176 303.6558 0001713 100.6133 259.5193 13.19725088159774
ONEWEB-0672             
1 55831U 23029AM  26174.68412870  .00000101  00000+0  21600-3 0  9997
2 55831  87.9194 273.1400 0002258  96.9048 263.2342 13.20772666162003
ONEWEB-0673             
1 55832U 23029AN  26174.78827751  .00000022  00000+0  22005-4 0  9990
2 55832  87.9183 303.6525 0001741  99.3892 260.7437 13.19727642159778
ONEWEB-0674             
1 55833U 23029AP  26174.72668953 -.00000195  00000+0 -56042-3 0  9992
2 55833  87.8959 288.4139 0001619  91.6236 268.5079 13.14504613160272
ONEWEB-0675             
1 55834U 23029AQ  26174.80330952 -.00000010  00000+0 -57154-4 0  9999
2 55834  87.9177 303.6590 0002203 102.6013 257.5366 13.19725195159790
ONEWEB-0720             
1 55835U 23029AR  26174.79540540  .00000087  00000+0  18480-3 0  9994
2 55835  87.9175 303.6605 0001712 108.0568 252.0752 13.19725463159714
ONEWEB-0537             
1 56046U 23043A   26174.88233132 -.00000088  00000+0 -26503-3 0  9999
2 56046  87.9088 227.4421 0002285  96.2785 263.8606 13.16594276159841
ONEWEB-0538             
1 56047U 23043B   26174.87599550  .00000029  00000+0  41080-4 0  9999
2 56047  87.9093 227.4461 0002229 103.6392 256.4988 13.16595159159850
ONEWEB-0546             
1 56048U 23043C   26174.86332992 -.00000104  00000+0 -30539-3 0  9996
2 56048  87.9091 227.4481 0002753  90.8118 269.3329 13.16595264159844
ONEWEB-0547             
1 56049U 23043D   26174.60662537  .00000052  00000+0  94311-4 0  9999
2 56049  87.9254 242.6972 0002024 103.8987 256.2372 13.21826502159076
ONEWEB-0548             
1 56050U 23043E   26174.88786072  .00000004  00000+0 -24437-4 0  9992
2 56050  87.9088 227.4396 0001865  84.8457 275.2887 13.16592596159840
ONEWEB-0549             
1 56051U 23043F   26174.90352835  .00000070  00000+0  13758-3 0  9997
2 56051  87.9246 242.6443 0002253 107.4935 252.6446 13.21825880159115
ONEWEB-0550             
1 56052U 23043G   26174.89008036  .00000079  00000+0  15925-3 0  9994
2 56052  87.9250 242.6446 0001881  94.9687 265.1662 13.21826199159117
ONEWEB-0551             
1 56053U 23043H   26174.92432634  .00000047  00000+0  90902-4 0  9998
2 56053  87.8999 257.8842 0002058 110.1056 250.0296 13.15549675157289
ONEWEB-0552             
1 56054U 23043J   26174.43082653  .00000019  00000+0  13433-4 0  9990
2 56054  87.9249 242.7415 0001861 101.8035 258.3308 13.21825035159059
ONEWEB-0553             
1 56055U 23043K   26174.86966158 -.00000111  00000+0 -32361-3 0  9994
2 56055  87.9090 227.4474 0002381  90.2559 269.8844 13.16594413159856
ONEWEB-0554             
1 56056U 23043L   26174.85700351 -.00000051  00000+0 -16721-3 0  9990
2 56056  87.9090 227.4589 0001817  82.5401 277.5937 13.16595548159834
